{
    "CCSDS_OMM_VERS": "3.0",
    "COMMENT": "GENERATED VIA SPACE-TRACK.ORG API",
    "CREATION_DATE": "2025-05-23T14:56:28",
    "ORIGINATOR": "18 SPCS",
    "OBJECT_NAME": "BEIDOU 3M17",
    "OBJECT_ID": "2018-093A",
    "CENTER_NAME": "EARTH",
    "REF_FRAME": "TEME",
    "TIME_SYSTEM": "UTC",
    "MEAN_ELEMENT_THEORY": "SGP4",
    "EPOCH": "2025-05-23T11:30:47.223072",
    "MEAN_MOTION": "1.86228199",
    "ECCENTRICITY": "0.00096360",
    "INCLINATION": "54.1833",
    "RA_OF_ASC_NODE": "195.5175",
    "ARG_OF_PERICENTER": "284.2099",
    "MEAN_ANOMALY": "75.7691",
    "EPHEMERIS_TYPE": "0",
    "CLASSIFICATION_TYPE": "U",
    "NORAD_CAT_ID": "43706",
    "ELEMENT_SET_NO": "999",
    "REV_AT_EPOCH": "4426",
    "BSTAR": "0.00000000000000",
    "MEAN_MOTION_DOT": "0.00000084",
    "MEAN_MOTION_DDOT": "0.0000000000000",
    "SEMIMAJOR_AXIS": "27906.468",
    "PERIOD": "773.245",
    "APOAPSIS": "21555.224",
    "PERIAPSIS": "21501.443",
    "OBJECT_TYPE": "PAYLOAD",
    "RCS_SIZE": "LARGE",
    "COUNTRY_CODE": "PRC",
    "LAUNCH_DATE": "2018-11-18",
    "SITE": "XSC",
    "DECAY_DATE": null,
    "FILE": "4737031",
    "GP_ID": "288176119",
    "TLE_LINE0": "0 BEIDOU 3M17",
    "TLE_LINE1": "1 43706U 18093A   25143.47971323  .00000084  00000-0  00000+0 0  9993",
    "TLE_LINE2": "2 43706  54.1833 195.5175 0009636 284.2099  75.7691  1.86228199 44264"
}